{"fetched_at":"2026-07-21T07:06:28.574Z","source":"https://celestrak.org/NORAD/elements/gp.php?GROUP=oneweb&FORMAT=JSON","constellation":"oneweb","records":[{"OBJECT_NAME":"ONEWEB-0380","OBJECT_ID":"2021-090AD","EPOCH":"2026-07-20T18:31:37.529760","CLASSIFICATION_TYPE":"U","MEAN_MOTION":13.19726558,"ECCENTRICITY":0.00019481,"INCLINATION":87.9183,"RA_OF_ASC_NODE":298.2841,"ARG_OF_PERICENTER":95.0496,"MEAN_ANOMALY":265.086,"EPHEMERIS_TYPE":0,"NORAD_CAT_ID":49306,"ELEMENT_SET_NO":999,"REV_AT_EPOCH":23085,"BSTAR":0.00010401397,"MEAN_MOTION_DOT":5.5e-7,"MEAN_MOTION_DDOT":0},{"OBJECT_NAME":"ONEWEB-0381","OBJECT_ID":"2021-090AE","EPOCH":"2026-07-20T17:15:38.627712","CLASSIFICATION_TYPE":"U","MEAN_MOTION":13.20769762,"ECCENTRICITY":0.00017854,"INCLINATION":87.9181,"RA_OF_ASC_NODE":267.7589,"ARG_OF_PERICENTER":94.8671,"MEAN_ANOMALY":265.2666,"EPHEMERIS_TYPE":0,"NORAD_CAT_ID":49307,"ELEMENT_SET_NO":999,"REV_AT_EPOCH":23425,"BSTAR":-0.000030529117,"MEAN_MOTION_DOT":1e-8,"MEAN_MOTION_DDOT":0},{"OBJECT_NAME":"ONEWEB-0382","OBJECT_ID":"2021-090AF","EPOCH":"2026-07-20T06:01:44.038560","CLASSIFICATION_TYPE":"U","MEAN_MOTION":13.20771978,"ECCENTRICITY":0.00017327,"INCLINATION":87.9181,"RA_OF_ASC_NODE":267.846,"ARG_OF_PERICENTER":98.6034,"MEAN_ANOMALY":261.5296,"EPHEMERIS_TYPE":0,"NORAD_CAT_ID":49308,"ELEMENT_SET_NO":999,"REV_AT_EPOCH":23418,"BSTAR":-0.00018246045,"MEAN_MOTION_DOT":-6.1e-7,"MEAN_MOTION_DDOT":0},{"OBJECT_NAME":"ONEWEB-0383","OBJECT_ID":"2021-090AG","EPOCH":"2026-07-20T12:33:36.715968","CLASSIFICATION_TYPE":"U","MEAN_MOTION":13.14503146,"ECCENTRICITY":0.00018782,"INCLINATION":87.8966,"RA_OF_ASC_NODE":283.059,"ARG_OF_PERICENTER":102.3647,"MEAN_ANOMALY":257.7693,"EPHEMERIS_TYPE":0,"NORAD_CAT_ID":49309,"ELEMENT_SET_NO":999,"REV_AT_EPOCH":23197,"BSTAR":0.00066112073,"MEAN_MOTION_DOT":0.00000258,"MEAN_MOTION_DDOT":0},{"OBJECT_NAME":"ONEWEB-0384","OBJECT_ID":"2021-090AH","EPOCH":"2026-07-20T16:38:22.889472","CLASSIFICATION_TYPE":"U","MEAN_MOTION":13.20814758,"ECCENTRICITY":0.00015712,"INCLINATION":87.9179,"RA_OF_ASC_NODE":267.8016,"ARG_OF_PERICENTER":102.4799,"MEAN_ANOMALY":257.6511,"EPHEMERIS_TYPE":0,"NORAD_CAT_ID":49310,"ELEMENT_SET_NO":999,"REV_AT_EPOCH":23425,"BSTAR":0.000070243792,"MEAN_MOTION_DOT":4.2e-7,"MEAN_MOTION_DDOT":0},{"OBJECT_NAME":"ONEWEB-0385","OBJECT_ID":"2021-090AJ","EPOCH":"2026-07-20T22:13:50.126304","CLASSIFICATION_TYPE":"U","MEAN_MOTION":13.20771296,"ECCENTRICITY":0.00018576,"INCLINATION":87.9178,"RA_OF_ASC_NODE":267.7169,"ARG_OF_PERICENTER":96.9112,"MEAN_ANOMALY":263.2233,"EPHEMERIS_TYPE":0,"NORAD_CAT_ID":49311,"ELEMENT_SET_NO":999,"REV_AT_EPOCH":23425,"BSTAR":-0.000007937472,"MEAN_MOTION_DOT":1e-7,"MEAN_MOTION_DDOT":0},{"OBJECT_NAME":"ONEWEB-0386","OBJECT_ID":"2021-090AK","EPOCH":"2026-07-20T17:10:47.578080","CLASSIFICATION_TYPE":"U","MEAN_MOTION":13.20769908,"ECCENTRICITY":0.00016984,"INCLINATION":87.919,"RA_OF_ASC_NODE":267.7519,"ARG_OF_PERICENTER":94.8421,"MEAN_ANOMALY":265.2907,"EPHEMERIS_TYPE":0,"NORAD_CAT_ID":49312,"ELEMENT_SET_NO":999,"REV_AT_EPOCH":23424,"BSTAR":0.000069682476,"MEAN_MOTION_DOT":4.1e-7,"MEAN_MOTION_DDOT":0},{"OBJECT_NAME":"ONEWEB-0387","OBJECT_ID":"2021-090AL","EPOCH":"2026-07-20T11:21:43.162272","CLASSIFICATION_TYPE":"U","MEAN_MOTION":13.20770821,"ECCENTRICITY":0.0001891,"INCLINATION":87.9169,"RA_OF_ASC_NODE":267.8171,"ARG_OF_PERICENTER":88.2672,"MEAN_ANOMALY":271.8678,"EPHEMERIS_TYPE":0,"NORAD_CAT_ID":49313,"ELEMENT_SET_NO":999,"REV_AT_EPOCH":23421,"BSTAR":0.00014268574,"MEAN_MOTION_DOT":7.1e-7,"MEAN_MOTION_DDOT":0},{"OBJECT_NAME":"ONEWEB-0388","OBJECT_ID":"2021-090AM","EPOCH":"2026-07-20T18:24:48.315168","CLASSIFICATION_TYPE":"U","MEAN_MOTION":13.19724118,"ECCENTRICITY":0.00018896,"INCLINATION":87.9184,"RA_OF_ASC_NODE":298.2831,"ARG_OF_PERICENTER":100.3002,"MEAN_ANOMALY":259.8344,"EPHEMERIS_TYPE":0,"NORAD_CAT_ID":49314,"ELEMENT_SET_NO":999,"REV_AT_EPOCH":23084,"BSTAR":0.000075034893,"MEAN_MOTION_DOT":4.3e-7,"MEAN_MOTION_DDOT":0},{"OBJECT_NAME":"ONEWEB-0389","OBJECT_ID":"2021-132A","EPOCH":"2026-07-20T21:56:41.283744","CLASSIFICATION_TYPE":"U","MEAN_MOTION":13.17647931,"ECCENTRICITY":0.00016331,"INCLINATION":87.9153,"RA_OF_ASC_NODE":359.1584,"ARG_OF_PERICENTER":84.9834,"MEAN_ANOMALY":275.1484,"EPHEMERIS_TYPE":0,"NORAD_CAT_ID":50469,"ELEMENT_SET_NO":999,"REV_AT_EPOCH":22252,"BSTAR":-0.00010417551,"MEAN_MOTION_DOT":-2.8e-7,"MEAN_MOTION_DDOT":0},{"OBJECT_NAME":"ONEWEB-0390","OBJECT_ID":"2021-132B","EPOCH":"2026-07-20T21:59:07.089792","CLASSIFICATION_TYPE":"U","MEAN_MOTION":13.17648471,"ECCENTRICITY":0.00020779,"INCLINATION":87.9152,"RA_OF_ASC_NODE":359.1596,"ARG_OF_PERICENTER":90.2247,"MEAN_ANOMALY":269.9122,"EPHEMERIS_TYPE":0,"NORAD_CAT_ID":50470,"ELEMENT_SET_NO":999,"REV_AT_EPOCH":22252,"BSTAR":0.00012895328,"MEAN_MOTION_DOT":6.3e-7,"MEAN_MOTION_DDOT":0},{"OBJECT_NAME":"ONEWEB-0391","OBJECT_ID":"2021-132C","EPOCH":"2026-07-20T22:01:32.863008","CLASSIFICATION_TYPE":"U","MEAN_MOTION":13.17647665,"ECCENTRICITY":0.00018065,"INCLINATION":87.9155,"RA_OF_ASC_NODE":359.1691,"ARG_OF_PERICENTER":68.3091,"MEAN_ANOMALY":291.8233,"EPHEMERIS_TYPE":0,"NORAD_CAT_ID":50471,"ELEMENT_SET_NO":999,"REV_AT_EPOCH":22252,"BSTAR":-0.00016751446,"MEAN_MOTION_DOT":-5.2e-7,"MEAN_MOTION_DDOT":0},{"OBJECT_NAME":"ONEWEB-0392","OBJECT_ID":"2021-132D","EPOCH":"2026-07-20T20:55:56.568000","CLASSIFICATION_TYPE":"U","MEAN_MOTION":13.17647356,"ECCENTRICITY":0.00016631,"INCLINATION":87.9161,"RA_OF_ASC_NODE":359.1492,"ARG_OF_PERICENTER":83.1861,"MEAN_ANOMALY":276.946,"EPHEMERIS_TYPE":0,"NORAD_CAT_ID":50472,"ELEMENT_SET_NO":999,"REV_AT_EPOCH":22255,"BSTAR":-0.000002692396,"MEAN_MOTION_DOT":1.2e-7,"MEAN_MOTION_DDOT":0},{"OBJECT_NAME":"ONEWEB-0393","OBJECT_ID":"2021-132E","EPOCH":"2026-07-20T22:10:04.778688","CLASSIFICATION_TYPE":"U","MEAN_MOTION":13.17647507,"ECCENTRICITY":0.00017488,"INCLINATION":87.9153,"RA_OF_ASC_NODE":359.1531,"ARG_OF_PERICENTER":90.077,"MEAN_ANOMALY":270.0562,"EPHEMERIS_TYPE":0,"NORAD_CAT_ID":50473,"ELEMENT_SET_NO":999,"REV_AT_EPOCH":22255,"BSTAR":-0.000012817811,"MEAN_MOTION_DOT":8e-8,"MEAN_MOTION_DDOT":0},{"OBJECT_NAME":"ONEWEB-0394","OBJECT_ID":"2021-132F","EPOCH":"2026-07-20T18:53:41.013600","CLASSIFICATION_TYPE":"U","MEAN_MOTION":13.18685644,"ECCENTRICITY":0.00017557,"INCLINATION":87.92,"RA_OF_ASC_NODE":328.7623,"ARG_OF_PERICENTER":99.8968,"MEAN_ANOMALY":260.2362,"EPHEMERIS_TYPE":0,"NORAD_CAT_ID":50474,"ELEMENT_SET_NO":999,"REV_AT_EPOCH":22602,"BSTAR":0.000042745574,"MEAN_MOTION_DOT":3e-7,"MEAN_MOTION_DDOT":0},{"OBJECT_NAME":"ONEWEB-0395","OBJECT_ID":"2021-132G","EPOCH":"2026-07-20T21:21:53.317152","CLASSIFICATION_TYPE":"U","MEAN_MOTION":13.1141751,"ECCENTRICITY":0.00019425,"INCLINATION":87.8889,"RA_OF_ASC_NODE":14.3551,"ARG_OF_PERICENTER":85.207,"MEAN_ANOMALY":274.9279,"EPHEMERIS_TYPE":0,"NORAD_CAT_ID":50475,"ELEMENT_SET_NO":999,"REV_AT_EPOCH":22013,"BSTAR":-0.0014228031,"MEAN_MOTION_DOT":-0.00000492,"MEAN_MOTION_DDOT":0},{"OBJECT_NAME":"ONEWEB-0396","OBJECT_ID":"2021-132H","EPOCH":"2026-07-20T18:43:58.445184","CLASSIFICATION_TYPE":"U","MEAN_MOTION":13.18686464,"ECCENTRICITY":0.0001717,"INCLINATION":87.9202,"RA_OF_ASC_NODE":328.7767,"ARG_OF_PERICENTER":97.5132,"MEAN_ANOMALY":262.6195,"EPHEMERIS_TYPE":0,"NORAD_CAT_ID":50476,"ELEMENT_SET_NO":999,"REV_AT_EPOCH":22606,"BSTAR":0.000054112065,"MEAN_MOTION_DOT":3.4e-7,"MEAN_MOTION_DDOT":0},{"OBJECT_NAME":"ONEWEB-0397","OBJECT_ID":"2021-132J","EPOCH":"2026-07-20T20:55:04.771200","CLASSIFICATION_TYPE":"U","MEAN_MOTION":13.18686851,"ECCENTRICITY":0.00016413,"INCLINATION":87.9202,"RA_OF_ASC_NODE":328.7586,"ARG_OF_PERICENTER":101.1272,"MEAN_ANOMALY":259.0045,"EPHEMERIS_TYPE":0,"NORAD_CAT_ID":50477,"ELEMENT_SET_NO":999,"REV_AT_EPOCH":22605,"BSTAR":0.000006190577,"MEAN_MOTION_DOT":1.5e-7,"MEAN_MOTION_DDOT":0},{"OBJECT_NAME":"ONEWEB-0398","OBJECT_ID":"2021-132K","EPOCH":"2026-07-20T22:25:24.191328","CLASSIFICATION_TYPE":"U","MEAN_MOTION":13.11416254,"ECCENTRICITY":0.00021106,"INCLINATION":87.8897,"RA_OF_ASC_NODE":14.3397,"ARG_OF_PERICENTER":87.6983,"MEAN_ANOMALY":272.4386,"EPHEMERIS_TYPE":0,"NORAD_CAT_ID":50478,"ELEMENT_SET_NO":999,"REV_AT_EPOCH":22003,"BSTAR":0.0014235416,"MEAN_MOTION_DOT":0.00000517,"MEAN_MOTION_DDOT":0},{"OBJECT_NAME":"ONEWEB-0399","OBJECT_ID":"2021-132L","EPOCH":"2026-07-20T22:05:52.272960","CLASSIFICATION_TYPE":"U","MEAN_MOTION":13.11418155,"ECCENTRICITY":0.00014309,"INCLINATION":87.8893,"RA_OF_ASC_NODE":14.3537,"ARG_OF_PERICENTER":82.3,"MEAN_ANOMALY":277.829,"EPHEMERIS_TYPE":0,"NORAD_CAT_ID":50479,"ELEMENT_SET_NO":999,"REV_AT_EPOCH":22002,"BSTAR":0.0010756322,"MEAN_MOTION_DOT":0.00000394,"MEAN_MOTION_DDOT":0},{"OBJECT_NAME":"ONEWEB-0400","OBJECT_ID":"2021-132M","EPOCH":"2026-07-20T20:23:31.259040","CLASSIFICATION_TYPE":"U","MEAN_MOTION":13.18685462,"ECCENTRICITY":0.00020326,"INCLINATION":87.9202,"RA_OF_ASC_NODE":328.7528,"ARG_OF_PERICENTER":96.5702,"MEAN_ANOMALY":263.5662,"EPHEMERIS_TYPE":0,"NORAD_CAT_ID":50480,"ELEMENT_SET_NO":999,"REV_AT_EPOCH":22604,"BSTAR":0.00005914957,"MEAN_MOTION_DOT":3.6e-7,"MEAN_MOTION_DDOT":0},{"OBJECT_NAME":"ONEWEB-0401","OBJECT_ID":"2021-132N","EPOCH":"2026-07-20T21:29:04.933536","CLASSIFICATION_TYPE":"U","MEAN_MOTION":13.18686638,"ECCENTRICITY":0.0001825,"INCLINATION":87.9204,"RA_OF_ASC_NODE":328.7412,"ARG_OF_PERICENTER":106.8482,"MEAN_ANOMALY":253.2851,"EPHEMERIS_TYPE":0,"NORAD_CAT_ID":50481,"ELEMENT_SET_NO":999,"REV_AT_EPOCH":22605,"BSTAR":-0.000034700802,"MEAN_MOTION_DOT":-1e-8,"MEAN_MOTION_DDOT":0},{"OBJECT_NAME":"ONEWEB-0402","OBJECT_ID":"2021-132P","EPOCH":"2026-07-20T20:35:39.207552","CLASSIFICATION_TYPE":"U","MEAN_MOTION":13.18684119,"ECCENTRICITY":0.00016919,"INCLINATION":87.9202,"RA_OF_ASC_NODE":328.7372,"ARG_OF_PERICENTER":112.7155,"MEAN_ANOMALY":247.4156,"EPHEMERIS_TYPE":0,"NORAD_CAT_ID":50482,"ELEMENT_SET_NO":999,"REV_AT_EPOCH":22607,"BSTAR":-0.000004840378,"MEAN_MOTION_DOT":1.1e-7,"MEAN_MOTION_DDOT":0}]}
